{
    "links": {
        "self": "http://www.neowsapp.com/rest/v1/neo/3655397?api_key=iIulBulltgU6a56xZRHN4H3l9WmuAYTsLGpBGhQ2"
    },
    "id": "3655397",
    "neo_reference_id": "3655397",
    "name": "(2013 YO2)",
    "designation": "2013 YO2",
    "nasa_jpl_url": "http://ssd.jpl.nasa.gov/sbdb.cgi?sstr=3655397",
    "absolute_magnitude_h": 24.8,
    "estimated_diameter": {
        "kilometers": {
            "estimated_diameter_min": 0.0291443905,
            "estimated_diameter_max": 0.0651688382
        },
        "meters": {
            "estimated_diameter_min": 29.1443904535,
            "estimated_diameter_max": 65.1688382168
        },
        "miles": {
            "estimated_diameter_min": 0.018109479,
            "estimated_diameter_max": 0.0404940262
        },
        "feet": {
            "estimated_diameter_min": 95.6180819754,
            "estimated_diameter_max": 213.8085311752
        }
    },
    "is_potentially_hazardous_asteroid": false,
    "close_approach_data": [
        {
            "close_approach_date": "2013-12-15",
            "close_approach_date_full": "2013-Dec-15 11:40",
            "epoch_date_close_approach": 1387107600000,
            "relative_velocity": {
                "kilometers_per_second": "11.238739785",
                "kilometers_per_hour": "40459.4632259147",
                "miles_per_hour": "25139.9370250135"
            },
            "miss_distance": {
                "astronomical": "0.047201737",
                "lunar": "18.361475693",
                "kilometers": "7061279.31550019",
                "miles": "4387675.507435022"
            },
            "orbiting_body": "Earth"
        }
    ],
    "orbital_data": {
        "orbit_id": "5",
        "orbit_determination_date": "2017-04-06 08:43:13",
        "first_observation_date": "2013-12-24",
        "last_observation_date": "2013-12-30",
        "data_arc_in_days": 6,
        "observations_used": 33,
        "orbit_uncertainty": "9",
        "minimum_orbit_intersection": ".0191264",
        "jupiter_tisserand_invariant": "3.205",
        "epoch_osculation": "2456652.5",
        "eccentricity": ".6123405367306041",
        "semi_major_axis": "2.454071254269973",
        "inclination": "3.088749518649812",
        "ascending_node_longitude": "95.57093656311729",
        "orbital_period": "1404.200681336268",
        "perihelion_distance": ".9513439452551512",
        "perihelion_argument": "313.4531343365848",
        "aphelion_distance": "3.956798563284796",
        "perihelion_time": "2456617.023544408389",
        "mean_anomaly": "9.095227044631754",
        "mean_motion": ".2563736115392111",
        "equinox": "J2000",
        "orbit_class": {
            "orbit_class_type": "APO",
            "orbit_class_description": "Near-Earth asteroid orbits which cross the Earth’s orbit similar to that of 1862 Apollo",
            "orbit_class_range": "a (semi-major axis) > 1.0 AU; q (perihelion) < 1.017 AU"
        }
    },
    "is_sentry_object": false
}